[{"sat":{"ORDINAL":"1","COMMENT":"GENERATED VIA SPACETRACK.ORG API","ORIGINATOR":"JSPOC","NORAD_CAT_ID":"7530","OBJECT_NAME":"OSCAR 7","OBJECT_TYPE":"PAYLOAD","CLASSIFICATION_TYPE":"U","INTLDES":"74089B","EPOCH":"2018-10-12 11:53:15","EPOCH_MICROSECONDS":"912384","MEAN_MOTION":"12.53634793","ECCENTRICITY":"0.0012409","INCLINATION":"101.7033","RA_OF_ASC_NODE":"251.1197","ARG_OF_PERICENTER":"107.2908","MEAN_ANOMALY":"6.7641","EPHEMERIS_TYPE":"0","ELEMENT_SET_NO":"999","REV_AT_EPOCH":"929","BSTAR":"6.091e-06","MEAN_MOTION_DOT":"-4.4e-07","MEAN_MOTION_DDOT":"0","FILE":"2344048","TLE_LINE0":"0 OSCAR 7","TLE_LINE1":"1  7530U 74089B   18285.49532306 -.00000044  00000-0  60910-5 0  9999","TLE_LINE2":"2  7530 101.7033 251.1197 0012409 107.2908   6.7641 12.53634793  9298","OBJECT_ID":"1974-089B","OBJECT_NUMBER":"7530","SEMIMAJOR_AXIS":"7827.465","PERIOD":"114.865","APOGEE":"1459.043","PERIGEE":"1439.617"},"latlng":{"lat":21.229869862754683,"lng":-43.32043927004548}},{"sat":{"ORDINAL":"1","COMMENT":"GENERATED VIA SPACETRACK.ORG API","ORIGINATOR":"JSPOC","NORAD_CAT_ID":"7530","OBJECT_NAME":"OSCAR 7","OBJECT_TYPE":"PAYLOAD","CLASSIFICATION_TYPE":"U","INTLDES":"74089B","EPOCH":"2018-10-12 11:53:15","EPOCH_MICROSECONDS":"912384","MEAN_MOTION":"12.53634793","ECCENTRICITY":"0.0012409","INCLINATION":"101.7033","RA_OF_ASC_NODE":"251.1197","ARG_OF_PERICENTER":"107.2908","MEAN_ANOMALY":"6.7641","EPHEMERIS_TYPE":"0","ELEMENT_SET_NO":"999","REV_AT_EPOCH":"929","BSTAR":"6.091e-06","MEAN_MOTION_DOT":"-4.4e-07","MEAN_MOTION_DDOT":"0","FILE":"2344048","TLE_LINE0":"0 OSCAR 7","TLE_LINE1":"1  7530U 74089B   18285.49532306 -.00000044  00000-0  60910-5 0  9999","TLE_LINE2":"2  7530 101.7033 251.1197 0012409 107.2908   6.7641 12.53634793  9298","OBJECT_ID":"1974-089B","OBJECT_NUMBER":"7530","SEMIMAJOR_AXIS":"7827.465","PERIOD":"114.865","APOGEE":"1459.043","PERIGEE":"1439.617"},"latlng":{"lat":54.95439199677717,"lng":-62.205767104708}},{"sat":{"ORDINAL":"1","COMMENT":"GENERATED VIA SPACETRACK.ORG API","ORIGINATOR":"JSPOC","NORAD_CAT_ID":"7530","OBJECT_NAME":"OSCAR 7","OBJECT_TYPE":"PAYLOAD","CLASSIFICATION_TYPE":"U","INTLDES":"74089B","EPOCH":"2018-10-12 11:53:15","EPOCH_MICROSECONDS":"912384","MEAN_MOTION":"12.53634793","ECCENTRICITY":"0.0012409","INCLINATION":"101.7033","RA_OF_ASC_NODE":"251.1197","ARG_OF_PERICENTER":"107.2908","MEAN_ANOMALY":"6.7641","EPHEMERIS_TYPE":"0","ELEMENT_SET_NO":"999","REV_AT_EPOCH":"929","BSTAR":"6.091e-06","MEAN_MOTION_DOT":"-4.4e-07","MEAN_MOTION_DDOT":"0","FILE":"2344048","TLE_LINE0":"0 OSCAR 7","TLE_LINE1":"1  7530U 74089B   18285.49532306 -.00000044  00000-0  60910-5 0  9999","TLE_LINE2":"2  7530 101.7033 251.1197 0012409 107.2908   6.7641 12.53634793  9298","OBJECT_ID":"1974-089B","OBJECT_NUMBER":"7530","SEMIMAJOR_AXIS":"7827.465","PERIOD":"114.865","APOGEE":"1459.043","PERIGEE":"1439.617"},"latlng":{"lat":79.31027616734772,"lng":-135.13921645598512}},{"sat":{"ORDINAL":"1","COMMENT":"GENERATED VIA SPACETRACK.ORG API","ORIGINATOR":"JSPOC","NORAD_CAT_ID":"7530","OBJECT_NAME":"OSCAR 7","OBJECT_TYPE":"PAYLOAD","CLASSIFICATION_TYPE":"U","INTLDES":"74089B","EPOCH":"2018-10-12 11:53:15","EPOCH_MICROSECONDS":"912384","MEAN_MOTION":"12.53634793","ECCENTRICITY":"0.0012409","INCLINATION":"101.7033","RA_OF_ASC_NODE":"251.1197","ARG_OF_PERICENTER":"107.2908","MEAN_ANOMALY":"6.7641","EPHEMERIS_TYPE":"0","ELEMENT_SET_NO":"999","REV_AT_EPOCH":"929","BSTAR":"6.091e-06","MEAN_MOTION_DOT":"-4.4e-07","MEAN_MOTION_DDOT":"0","FILE":"2344048","TLE_LINE0":"0 OSCAR 7","TLE_LINE1":"1  7530U 74089B   18285.49532306 -.00000044  00000-0  60910-5 0  9999","TLE_LINE2":"2  7530 101.7033 251.1197 0012409 107.2908   6.7641 12.53634793  9298","OBJECT_ID":"1974-089B","OBJECT_NUMBER":"7530","SEMIMAJOR_AXIS":"7827.465","PERIOD":"114.865","APOGEE":"1459.043","PERIGEE":"1439.617"},"latlng":{"lat":25.238833384778292,"lng":-91.99165679612861}},{"sat":{"ORDINAL":"1","COMMENT":"GENERATED VIA SPACETRACK.ORG API","ORIGINATOR":"JSPOC","NORAD_CAT_ID":"7530","OBJECT_NAME":"OSCAR 7","OBJECT_TYPE":"PAYLOAD","CLASSIFICATION_TYPE":"U","INTLDES":"74089B","EPOCH":"2018-10-12 11:53:15","EPOCH_MICROSECONDS":"912384","MEAN_MOTION":"12.53634793","ECCENTRICITY":"0.0012409","INCLINATION":"101.7033","RA_OF_ASC_NODE":"251.1197","ARG_OF_PERICENTER":"107.2908","MEAN_ANOMALY":"6.7641","EPHEMERIS_TYPE":"0","ELEMENT_SET_NO":"999","REV_AT_EPOCH":"929","BSTAR":"6.091e-06","MEAN_MOTION_DOT":"-4.4e-07","MEAN_MOTION_DDOT":"0","FILE":"2344048","TLE_LINE0":"0 OSCAR 7","TLE_LINE1":"1  7530U 74089B   18285.49532306 -.00000044  00000-0  60910-5 0  9999","TLE_LINE2":"2  7530 101.7033 251.1197 0012409 107.2908   6.7641 12.53634793  9298","OBJECT_ID":"1974-089B","OBJECT_NUMBER":"7530","SEMIMAJOR_AXIS":"7827.465","PERIOD":"114.865","APOGEE":"1459.043","PERIGEE":"1439.617"},"latlng":{"lat":-39.004704732432465,"lng":61.09250433771473}},{"sat":{"ORDINAL":"1","COMMENT":"GENERATED VIA SPACETRACK.ORG API","ORIGINATOR":"JSPOC","NORAD_CAT_ID":"7530","OBJECT_NAME":"OSCAR 7","OBJECT_TYPE":"PAYLOAD","CLASSIFICATION_TYPE":"U","INTLDES":"74089B","EPOCH":"2018-10-12 11:53:15","EPOCH_MICROSECONDS":"912384","MEAN_MOTION":"12.53634793","ECCENTRICITY":"0.0012409","INCLINATION":"101.7033","RA_OF_ASC_NODE":"251.1197","ARG_OF_PERICENTER":"107.2908","MEAN_ANOMALY":"6.7641","EPHEMERIS_TYPE":"0","ELEMENT_SET_NO":"999","REV_AT_EPOCH":"929","BSTAR":"6.091e-06","MEAN_MOTION_DOT":"-4.4e-07","MEAN_MOTION_DDOT":"0","FILE":"2344048","TLE_LINE0":"0 OSCAR 7","TLE_LINE1":"1  7530U 74089B   18285.49532306 -.00000044  00000-0  60910-5 0  9999","TLE_LINE2":"2  7530 101.7033 251.1197 0012409 107.2908   6.7641 12.53634793  9298","OBJECT_ID":"1974-089B","OBJECT_NUMBER":"7530","SEMIMAJOR_AXIS":"7827.465","PERIOD":"114.865","APOGEE":"1459.043","PERIGEE":"1439.617"},"latlng":{"lat":-77.1629582698498,"lng":-177.99413094211772}},{"sat":{"ORDINAL":"1","COMMENT":"GENERATED VIA SPACETRACK.ORG API","ORIGINATOR":"JSPOC","NORAD_CAT_ID":"7530","OBJECT_NAME":"OSCAR 7","OBJECT_TYPE":"PAYLOAD","CLASSIFICATION_TYPE":"U","INTLDES":"74089B","EPOCH":"2018-10-12 11:53:15","EPOCH_MICROSECONDS":"912384","MEAN_MOTION":"12.53634793","ECCENTRICITY":"0.0012409","INCLINATION":"101.7033","RA_OF_ASC_NODE":"251.1197","ARG_OF_PERICENTER":"107.2908","MEAN_ANOMALY":"6.7641","EPHEMERIS_TYPE":"0","ELEMENT_SET_NO":"999","REV_AT_EPOCH":"929","BSTAR":"6.091e-06","MEAN_MOTION_DOT":"-4.4e-07","MEAN_MOTION_DDOT":"0","FILE":"2344048","TLE_LINE0":"0 OSCAR 7","TLE_LINE1":"1  7530U 74089B   18285.49532306 -.00000044  00000-0  60910-5 0  9999","TLE_LINE2":"2  7530 101.7033 251.1197 0012409 107.2908   6.7641 12.53634793  9298","OBJECT_ID":"1974-089B","OBJECT_NUMBER":"7530","SEMIMAJOR_AXIS":"7827.465","PERIOD":"114.865","APOGEE":"1459.043","PERIGEE":"1439.617"},"latlng":{"lat":-24.333625112831292,"lng":-179.48533600675825}},{"sat":{"ORDINAL":"1","COMMENT":"GENERATED VIA SPACETRACK.ORG API","ORIGINATOR":"JSPOC","NORAD_CAT_ID":"7530","OBJECT_NAME":"OSCAR 7","OBJECT_TYPE":"PAYLOAD","CLASSIFICATION_TYPE":"U","INTLDES":"74089B","EPOCH":"2018-10-12 11:53:15","EPOCH_MICROSECONDS":"912384","MEAN_MOTION":"12.53634793","ECCENTRICITY":"0.0012409","INCLINATION":"101.7033","RA_OF_ASC_NODE":"251.1197","ARG_OF_PERICENTER":"107.2908","MEAN_ANOMALY":"6.7641","EPHEMERIS_TYPE":"0","ELEMENT_SET_NO":"999","REV_AT_EPOCH":"929","BSTAR":"6.091e-06","MEAN_MOTION_DOT":"-4.4e-07","MEAN_MOTION_DDOT":"0","FILE":"2344048","TLE_LINE0":"0 OSCAR 7","TLE_LINE1":"1  7530U 74089B   18285.49532306 -.00000044  00000-0  60910-5 0  9999","TLE_LINE2":"2  7530 101.7033 251.1197 0012409 107.2908   6.7641 12.53634793  9298","OBJECT_ID":"1974-089B","OBJECT_NUMBER":"7530","SEMIMAJOR_AXIS":"7827.465","PERIOD":"114.865","APOGEE":"1459.043","PERIGEE":"1439.617"},"latlng":{"lat":82.99456133878465,"lng":-154.0216503736948}},{"sat":{"ORDINAL":"1","COMMENT":"GENERATED VIA SPACETRACK.ORG API","ORIGINATOR":"JSPOC","NORAD_CAT_ID":"7530","OBJECT_NAME":"OSCAR 7","OBJECT_TYPE":"PAYLOAD","CLASSIFICATION_TYPE":"U","INTLDES":"74089B","EPOCH":"2018-10-12 11:53:15","EPOCH_MICROSECONDS":"912384","MEAN_MOTION":"12.53634793","ECCENTRICITY":"0.0012409","INCLINATION":"101.7033","RA_OF_ASC_NODE":"251.1197","ARG_OF_PERICENTER":"107.2908","MEAN_ANOMALY":"6.7641","EPHEMERIS_TYPE":"0","ELEMENT_SET_NO":"999","REV_AT_EPOCH":"929","BSTAR":"6.091e-06","MEAN_MOTION_DOT":"-4.4e-07","MEAN_MOTION_DDOT":"0","FILE":"2344048","TLE_LINE0":"0 OSCAR 7","TLE_LINE1":"1  7530U 74089B   18285.49532306 -.00000044  00000-0  60910-5 0  9999","TLE_LINE2":"2  7530 101.7033 251.1197 0012409 107.2908   6.7641 12.53634793  9298","OBJECT_ID":"1974-089B","OBJECT_NUMBER":"7530","SEMIMAJOR_AXIS":"7827.465","PERIOD":"114.865","APOGEE":"1459.043","PERIGEE":"1439.617"},"latlng":{"lat":-15.904551928518524,"lng":-122.33843088420102}},{"sat":{"ORDINAL":"1","COMMENT":"GENERATED VIA SPACETRACK.ORG API","ORIGINATOR":"JSPOC","NORAD_CAT_ID":"7530","OBJECT_NAME":"OSCAR 7","OBJECT_TYPE":"PAYLOAD","CLASSIFICATION_TYPE":"U","INTLDES":"74089B","EPOCH":"2018-10-12 11:53:15","EPOCH_MICROSECONDS":"912384","MEAN_MOTION":"12.53634793","ECCENTRICITY":"0.0012409","INCLINATION":"101.7033","RA_OF_ASC_NODE":"251.1197","ARG_OF_PERICENTER":"107.2908","MEAN_ANOMALY":"6.7641","EPHEMERIS_TYPE":"0","ELEMENT_SET_NO":"999","REV_AT_EPOCH":"929","BSTAR":"6.091e-06","MEAN_MOTION_DOT":"-4.4e-07","MEAN_MOTION_DDOT":"0","FILE":"2344048","TLE_LINE0":"0 OSCAR 7","TLE_LINE1":"1  7530U 74089B   18285.49532306 -.00000044  00000-0  60910-5 0  9999","TLE_LINE2":"2  7530 101.7033 251.1197 0012409 107.2908   6.7641 12.53634793  9298","OBJECT_ID":"1974-089B","OBJECT_NUMBER":"7530","SEMIMAJOR_AXIS":"7827.465","PERIOD":"114.865","APOGEE":"1459.043","PERIGEE":"1439.617"},"latlng":{"lat":-35.06377141730493,"lng":-158.67701467614614}}]